WORLDVIEW-1 (WV-1)      
1 32060U 07041A   26197.30522363  .00003009  00000+0  12508-3 0  9992
2 32060  97.3907 316.6406 0001630 201.2495 158.8676 15.24565400 47315
WORLDVIEW-2 (WV-2)      
1 35946U 09055A   26197.25069085  .00000043  00000+0  28709-4 0  9992
2 35946  98.4756 270.3046 0005353 127.2925 232.8751 14.37907096879822
WORLDVIEW-3 (WV-3)      
1 40115U 14048A   26197.27521694  .00000361  00000+0  48507-4 0  9996
2 40115  97.8556 271.7054 0001383 154.3041 205.8242 14.85065123646220
